$$SOE
2460154.500000000, A.D. 2023-Jul-29 00:00:00.0000, 2.691584486006368E+08, 2.208805536156287E+08, -2.524129978073233E+07,
2460161.500000000, A.D. 2023-Aug-05 00:00:00.0000, 2.632435222754828E+08, 2.305697578077264E+08, -2.590802091357980E+07,
2460168.500000000, A.D. 2023-Aug-12 00:00:00.0000, 2.570330106222230E+08, 2.400000307361873E+08, -2.654562682206161E+07,
2460175.500000000, A.D. 2023-Aug-19 00:00:00.0000, 2.505381958483404E+08, 2.491647926159624E+08, -2.715384524330254E+07,
2460182.500000000, A.D. 2023-Aug-26 00:00:00.0000, 2.437702909678044E+08, 2.580578987592722E+08, -2.773243886780781E+07,
2460189.500000000, A.D. 2023-Sep-02 00:00:00.0000, 2.367404312678475E+08, 2.666736188617318E+08, -2.828120338249573E+07,
2460196.500000000, A.D. 2023-Sep-09 00:00:00.0000, 2.294596672140879E+08, 2.750066169902667E+08, -2.879996562800148E+07,
2460203.500000000, A.D. 2023-Sep-16 00:00:00.0000, 2.219389588322220E+08, 2.830519322352040E+08, -2.928858188898295E+07,
2460210.500000000, A.D. 2023-Sep-23 00:00:00.0000, 2.141891718636356E+08, 2.908049603263189E+08, -2.974693633072755E+07,
2460217.500000000, A.D. 2023-Sep-30 00:00:00.0000, 2.062210752469696E+08, 2.982614374058244E+08, -3.017493945199943E+07,
2460224.500000000, A.D. 2023-Oct-07 00:00:00.0000, 1.980453374661783E+08, 3.054174254060270E+08, -3.057252637909169E+07,
2460231.500000000, A.D. 2023-Oct-14 00:00:00.0000, 1.896725227060499E+08, 3.122692957116128E+08, -3.093965536331798E+07,
2460238.500000000, A.D. 2023-Oct-21 00:00:00.0000, 1.811130899599151E+08, 3.188137126982052E+08, -3.127630664453164E+07,
2460245.500000000, A.D. 2023-Oct-28 00:00:00.0000, 1.723773935813642E+08, 3.250476193855948E+08, -3.158248136094847E+07,
2460252.500000000, A.D. 2023-Nov-04 00:00:00.0000, 1.634756839485970E+08, 3.309682244178590E+08, -3.185820044876274E+07,
2460259.500000000, A.D. 2023-Nov-11 00:00:00.0000, 1.544181083494362E+08, 3.365729897584832E+08, -3.210350359357356E+07,
2460266.500000000, A.D. 2023-Nov-18 00:00:00.0000, 1.452147122488821E+08, 3.418596190228413E+08, -3.231844825674152E+07,
2460273.500000000, A.D. 2023-Nov-25 00:00:00.0000, 1.358754409619561E+08, 3.468260464517955E+08, -3.250310877912354E+07,
2460280.500000000, A.D. 2023-Dec-02 00:00:00.0000, 1.264101417130747E+08, 3.514704264912233E+08, -3.265757556254332E+07,
2460287.500000000, A.D. 2023-Dec-09 00:00:00.0000, 1.168285661138968E+08, 3.557911238924062E+08, -3.278195433719598E+07,
2460294.500000000, A.D. 2023-Dec-16 00:00:00.0000, 1.071403733026476E+08, 3.597867043211346E+08, -3.287636553662968E+07,
2460301.500000000, A.D. 2023-Dec-23 00:00:00.0000, 9.735513405246955E+07, 3.634559261424374E+08, -3.294094375329781E+07,
2460308.500000000, A.D. 2023-Dec-30 00:00:00.0000, 8.748233447436994E+07, 3.667977344109975E+08, -3.297583706418511E+07,
2460315.500000000, A.D. 2024-Jan-06 00:00:00.0000, 7.753137750990471E+07, 3.698112546829157E+08, -3.298120625404060E+07,
2460322.500000000, A.D. 2024-Jan-13 00:00:00.0000, 6.751158535379706E+07, 3.724957848258553E+08, -3.295722437258798E+07,
2460329.500000000, A.D. 2024-Jan-20 00:00:00.0000, 5.743220400815503E+07, 3.748507879018275E+08, -3.290407648576614E+07,
2460336.500000000, A.D. 2024-Jan-27 00:00:00.0000, 4.730240792095269E+07, 3.768758867566262E+08, -3.282195938028926E+07,
2460343.500000000, A.D. 2024-Feb-03 00:00:00.0000, 3.713130426005889E+07, 3.785708593483014E+08, -3.271108125757845E+07,
2460350.500000000, A.D. 2024-Feb-10 00:00:00.0000, 2.692793708108230E+07, 3.799356345072458E+08, -3.257166146442342E+07,
2460357.500000000, A.D. 2024-Feb-17 00:00:00.0000, 1.670129151041347E+07, 3.809702881211153E+08, -3.240393027080992E+07,
2460364.500000000, A.D. 2024-Feb-24 00:00:00.0000, 6.460297963498240E+06, 3.816750397458937E+08, -3.220812869550572E+07,
2460371.500000000, A.D. 2024-Mar-02 00:00:00.0000, -3.786163587011750E+06, 3.820502495983152E+08, -3.198450838336372E+07,
2460378.500000000, A.D. 2024-Mar-09 00:00:00.0000, -1.402925916818214E+07, 3.820964158557608E+08, -3.173333155092502E+07,
2460385.500000000, A.D. 2024-Mar-16 00:00:00.0000, -2.426019580672476E+07, 3.818141724515216E+08, -3.145487101933004E+07,
2460392.500000000, A.D. 2024-Mar-23 00:00:00.0000, -3.447021608797642E+07, 3.812042884681813E+08, -3.114941023380765E+07,
2460399.500000000, A.D. 2024-Mar-30 00:00:00.0000, -4.465059452406258E+07, 3.802676690970687E+08, -3.081724306611116E+07,
2460406.500000000, A.D. 2024-Apr-06 00:00:00.0000, -5.479263548392547E+07, 3.790053547848985E+08, -3.045867369678630E+07,
2460413.500000000, A.D. 2024-Apr-13 00:00:00.0000, -6.488766914910693E+07, 3.774185193974685E+08, -3.007401683315903E+07,
2460420.500000000, A.D. 2024-Apr-20 00:00:00.0000, -7.492704645876737E+07, 3.755084700794480E+08, -2.966359795763409E+07,
2460427.500000000, A.D. 2024-Apr-27 00:00:00.0000, -8.490213456880218E+07, 3.732766482472579E+08, -2.922775351286194E+07,
2460434.500000000, A.D. 2024-May-04 00:00:00.0000, -9.480431274725035E+07, 3.707246310088953E+08, -2.876683108852725E+07,
2460441.500000000, A.D. 2024-May-11 00:00:00.0000, -1.046249684789542E+08, 3.678541329085752E+08, -2.828118963942094E+07,
2460448.500000000, A.D. 2024-May-18 00:00:00.0000, -1.143554937091699E+08, 3.646670080193443E+08, -2.777119974023367E+07,
2460455.500000000, A.D. 2024-May-25 00:00:00.0000, -1.239872812136476E+08, 3.611652523794314E+08, -2.723724387970211E+07,
2460462.500000000, A.D. 2024-Jun-01 00:00:00.0000, -1.335117210483368E+08, 3.573510067190454E+08, -2.667971680415367E+07,
2460469.500000000, A.D. 2024-Jun-08 00:00:00.0000, -1.429201968462621E+08, 3.532265594600436E+08, -2.609902593486805E+07,
2460476.500000000, A.D. 2024-Jun-15 00:00:00.0000, -1.522040815771076E+08, 3.487943505404453E+08, -2.549559185145497E+07,
2460483.500000000, A.D. 2024-Jun-22 00:00:00.0000, -1.613547337907066E+08, 3.440569772487046E+08, -2.486984865356301E+07,
2460490.500000000, A.D. 2024-Jun-29 00:00:00.0000, -1.703634964788224E+08, 3.390172002576360E+08, -2.422224415563020E+07,
2460497.500000000, A.D. 2024-Jul-06 00:00:00.0000, -1.792216959205072E+08, 3.336779473884464E+08, -2.355324035754982E+07,
2460504.500000000, A.D. 2024-Jul-13 00:00:00.0000, -1.879206385822720E+08, 3.280423179284669E+08, -2.286331413737823E+07,
2460511.500000000, A.D. 2024-Jul-20 00:00:00.0000, -1.964516080851580E+08, 3.221135886596984E+08, -2.215295789030869E+07,
2460518.500000000, A.D. 2024-Jul-27 00:00:00.0000, -2.048058629218450E+08, 3.158952206491284E+08, -2.142268013268842E+07,
2460525.500000000, A.D. 2024-Aug-03 00:00:00.0000, -2.129746346808430E+08, 3.093908664385953E+08, -2.067300612766598E+07,
2460532.500000000, A.D. 2024-Aug-10 00:00:00.0000, -2.209491266427794E+08, 3.026043776453265E+08, -1.990447854933879E+07,
2460539.500000000, A.D. 2024-Aug-17 00:00:00.0000, -2.287205127322931E+08, 2.955398130100463E+08, -1.911765818894607E+07,
2460546.500000000, A.D. 2024-Aug-24 00:00:00.0000, -2.362799368302733E+08, 2.882014468833408E+08, -1.831312470789737E+07,
2460553.500000000, A.D. 2024-Aug-31 00:00:00.0000, -2.436185123667441E+08, 2.805937780997043E+08, -1.749147745326379E+07,
2460560.500000000, A.D. 2024-Sep-07 00:00:00.0000, -2.507273218689590E+08, 2.727215393751311E+08, -1.665333635868955E+07,
2460567.500000000, A.D. 2024-Sep-14 00:00:00.0000, -2.575974164245942E+08, 2.645897082326414E+08, -1.579934285683788E+07,
2460574.500000000, A.D. 2024-Sep-21 00:00:00.0000, -2.642198171405527E+08, 2.562035198778859E+08, -1.493016058359829E+07,
2460581.500000000, A.D. 2024-Sep-28 00:00:00.0000, -2.705855191390119E+08, 2.475684788086216E+08, -1.404647609311961E+07,
2460588.500000000, A.D. 2024-Oct-05 00:00:00.0000, -2.766854944735384E+08, 2.386903691637746E+08, -1.314899991834189E+07,
2460595.500000000, A.D. 2024-Oct-12 00:00:00.0000, -2.825106943894627E+08, 2.295752667903388E+08, -1.223846769849662E+07,
2460602.500000000, A.D. 2024-Oct-19 00:00:00.0000, -2.880520527531279E+08, 2.202295527604053E+08, -1.131564123440419E+07,
2460609.500000000, A.D. 2024-Oct-26 00:00:00.0000, -2.933004907569530E+08, 2.106599275379362E+08, -1.038130953246802E+07,
2460616.500000000, A.D. 2024-Nov-02 00:00:00.0000, -2.982469227217569E+08, 2.008734256409646E+08, -9.436289870368749E+06,
2460623.500000000, A.D. 2024-Nov-09 00:00:00.0000, -3.028822629855545E+08, 1.908774308085777E+08, -8.481428888368048E+06,
2460630.500000000, A.D. 2024-Nov-16 00:00:00.0000, -3.071974339456221E+08, 1.806796916562893E+08, -7.517603704772159E+06,
2460637.500000000, A.D. 2024-Nov-23 00:00:00.0000, -3.111833753062438E+08, 1.702883377468445E+08, -6.545723059427656E+06,
2460644.500000000, A.D. 2024-Nov-30 00:00:00.0000, -3.148310544296871E+08, 1.597118960029933E+08, -5.566728502474174E+06,
2460651.500000000, A.D. 2024-Dec-07 00:00:00.0000, -3.181314774831781E+08, 1.489593078426765E+08, -4.581595626094230E+06,
2460658.500000000, A.D. 2024-Dec-14 00:00:00.0000, -3.210757021899130E+08, 1.380399482091889E+08, -3.591335168719873E+06,
2460665.500000000, A.D. 2024-Dec-21 00:00:00.0000, -3.236548546322297E+08, 1.269636451930983E+08, -2.596993872333840E+06,
2460672.500000000, A.D. 2024-Dec-28 00:00:00.0000, -3.258601482704033E+08, 1.157406972069074E+08, -1.599655506882064E+06,
2460679.500000000, A.D. 2025-Jan-04 00:00:00.0000, -3.276829027121531E+08, 1.043818899995989E+08, -6.004420937789902E+05,
2460686.500000000, A.D. 2025-Jan-11 00:00:00.0000, -3.291145641928155E+08, 9.289851505728343E+07, 3.994849876330346E+05,
2460693.500000000, A.D. 2025-Jan-18 00:00:00.0000, -3.301467288352085E+08, 8.130238834134218E+07, 1.398924033643421E+06,
2460700.500000000, A.D. 2025-Jan-25 00:00:00.0000, -3.307711685992905E+08, 6.960586874281469E+07, 2.396632144725077E+06,
2460707.500000000, A.D. 2025-Feb-01 00:00:00.0000, -3.309798598832080E+08, 5.782187605108005E+07, 3.391324447874565E+06,
2460714.500000000, A.D. 2025-Feb-08 00:00:00.0000, -3.307650148675102E+08, 4.596390825666587E+07, 4.381673429811241E+06,
2460721.500000000, A.D. 2025-Feb-15 00:00:00.0000, -3.301191157217901E+08, 3.404605793919776E+07, 5.366308399782456E+06,
$$EOE